[
    {
        "Altitude(m)": 707283.9179317355,
        "Argument of Periapsis(deg)": 0.004556048474650827,
        "Eccentricity": 0.0,
        "Inclination(deg)": 45.0,
        "Latitude(deg)": 45.043400042985745,
        "Longitude(deg)": -175.3298599055558,
        "Mean Anomaly(deg)": 86.43148665899234,
        "RAAN(deg)": 199.9956992234167,
        "Satellite Name": "Constellation 1 885",
        "Satellite Number": 885,
        "Semi-Major Axis(m)": 7083131.272910544,
        "Time(s)": 76
    },
    {
        "Altitude(m)": 707284.7738780242,
        "Argument of Periapsis(deg)": 0.004615996480896233,
        "Eccentricity": 0.0,
        "Inclination(deg)": 45.0,
        "Latitude(deg)": 45.04714547355811,
        "Longitude(deg)": -175.2484008625678,
        "Mean Anomaly(deg)": 86.49218779924223,
        "RAAN(deg)": 199.99564263425114,
        "Satellite Name": "Constellation 1 885",
        "Satellite Number": 885,
        "Semi-Major Axis(m)": 7083131.272910544,
        "Time(s)": 77
    },
    {
        "Altitude(m)": 707285.6153276118,
        "Argument of Periapsis(deg)": 0.004675944487141638,
        "Eccentricity": 0.0,
        "Inclination(deg)": 45.0,
        "Latitude(deg)": 45.05082681023374,
        "Longitude(deg)": -175.1669307542512,
        "Mean Anomaly(deg)": 86.55288893949216,
        "RAAN(deg)": 199.9955860450856,
        "Satellite Name": "Constellation 1 885",
        "Satellite Number": 885,
        "Semi-Major Axis(m)": 7083131.272910544,
        "Time(s)": 78
    },
    {
        "Altitude(m)": 707286.4422756196,
        "Argument of Periapsis(deg)": 0.004735892493387044,
        "Eccentricity": 0.0,
        "Inclination(deg)": 45.0,
        "Latitude(deg)": 45.0544440367068,
        "Longitude(deg)": -175.08544976882666,
        "Mean Anomaly(deg)": 86.61359007974204,
        "RAAN(deg)": 199.99552945592,
        "Satellite Name": "Constellation 1 885",
        "Satellite Number": 885,
        "Semi-Major Axis(m)": 7083131.272910544,
        "Time(s)": 79
    },
    {
        "Altitude(m)": 707287.2547172438,
        "Argument of Periapsis(deg)": 0.004795840499632449,
        "Eccentricity": 0.0,
        "Inclination(deg)": 45.0,
        "Latitude(deg)": 45.05799713695028,
        "Longitude(deg)": -175.00395809470828,
        "Mean Anomaly(deg)": 86.67429121999191,
        "RAAN(deg)": 199.99547286675445,
        "Satellite Name": "Constellation 1 885",
        "Satellite Number": 885,
        "Semi-Major Axis(m)": 7083131.272910544,
        "Time(s)": 80
    },
    {
        "Altitude(m)": 707288.0526477688,
        "Argument of Periapsis(deg)": 0.004855788505877855,
        "Eccentricity": 0.0,
        "Inclination(deg)": 45.0,
        "Latitude(deg)": 45.06148609521643,
        "Longitude(deg)": -174.92245592050045,
        "Mean Anomaly(deg)": 86.7349923602418,
        "RAAN(deg)": 199.9954162775889,
        "Satellite Name": "Constellation 1 885",
        "Satellite Number": 885,
        "Semi-Major Axis(m)": 7083131.272910544,
        "Time(s)": 81
    },
    {
        "Altitude(m)": 707288.8360625659,
        "Argument of Periapsis(deg)": 0.00491573651212326,
        "Eccentricity": 0.0,
        "Inclination(deg)": 45.0,
        "Latitude(deg)": 45.064910896037325,
        "Longitude(deg)": -174.84094360309138,
        "Mean Anomaly(deg)": 86.79569350049172,
        "RAAN(deg)": 199.9953596884233,
        "Satellite Name": "Constellation 1 885",
        "Satellite Number": 885,
        "Semi-Major Axis(m)": 7083131.272910544,
        "Time(s)": 82
    },
    {
        "Altitude(m)": 707289.6049570912,
        "Argument of Periapsis(deg)": 0.004975684518368666,
        "Eccentricity": 0.0,
        "Inclination(deg)": 45.0,
        "Latitude(deg)": 45.06827152422404,
        "Longitude(deg)": -174.75942099526182,
        "Mean Anomaly(deg)": 86.85639464074166,
        "RAAN(deg)": 199.99530309925774,
        "Satellite Name": "Constellation 1 885",
        "Satellite Number": 885,
        "Semi-Major Axis(m)": 7083131.272910544,
        "Time(s)": 83
    },
    {
        "Altitude(m)": 707290.3593268822,
        "Argument of Periapsis(deg)": 0.005035632524614072,
        "Eccentricity": 0.0,
        "Inclination(deg)": 45.0,
        "Latitude(deg)": 45.071567964868684,
        "Longitude(deg)": -174.67788845426423,
        "Mean Anomaly(deg)": 86.91709578099152,
        "RAAN(deg)": 199.99524651009216,
        "Satellite Name": "Constellation 1 885",
        "Satellite Number": 885,
        "Semi-Major Axis(m)": 7083131.272910544,
        "Time(s)": 84
    },
    {
        "Altitude(m)": 707291.0991675603,
        "Argument of Periapsis(deg)": 0.0050955805308594785,
        "Eccentricity": 0.0,
        "Inclination(deg)": 45.0,
        "Latitude(deg)": 45.074800203343635,
        "Longitude(deg)": -174.59634616943083,
        "Mean Anomaly(deg)": 86.97779692124146,
        "RAAN(deg)": 199.9951899209266,
        "Satellite Name": "Constellation 1 885",
        "Satellite Number": 885,
        "Semi-Major Axis(m)": 7083131.272910544,
        "Time(s)": 85
    },
    {
        "Altitude(m)": 707291.8244748433,
        "Argument of Periapsis(deg)": 0.005155528537104883,
        "Eccentricity": 0.0,
        "Inclination(deg)": 45.0,
        "Latitude(deg)": 45.077968225302044,
        "Longitude(deg)": -174.51479433026788,
        "Mean Anomaly(deg)": 87.03849806149134,
        "RAAN(deg)": 199.99513333176105,
        "Satellite Name": "Constellation 1 885",
        "Satellite Number": 885,
        "Semi-Major Axis(m)": 7083131.272910544,
        "Time(s)": 86
    },
    {
        "Altitude(m)": 707292.5352445215,
        "Argument of Periapsis(deg)": 0.0052154765433502885,
        "Eccentricity": 0.0,
        "Inclination(deg)": 45.0,
        "Latitude(deg)": 45.08107201667823,
        "Longitude(deg)": -174.43323312645185,
        "Mean Anomaly(deg)": 87.0991992017412,
        "RAAN(deg)": 199.99507674259544,
        "Satellite Name": "Constellation 1 885",
        "Satellite Number": 885,
        "Semi-Major Axis(m)": 7083131.272910544,
        "Time(s)": 87
    },
    {
        "Altitude(m)": 707293.2314724778,
        "Argument of Periapsis(deg)": 0.005275424549595694,
        "Eccentricity": 0.0,
        "Inclination(deg)": 45.0,
        "Latitude(deg)": 45.084111563687856,
        "Longitude(deg)": -174.35166274782645,
        "Mean Anomaly(deg)": 87.15990034199109,
        "RAAN(deg)": 199.9950201534299,
        "Satellite Name": "Constellation 1 885",
        "Satellite Number": 885,
        "Semi-Major Axis(m)": 7083131.272910544,
        "Time(s)": 88
    },
    {
        "Altitude(m)": 707293.9131546739,
        "Argument of Periapsis(deg)": 0.0053353725558411,
        "Eccentricity": 0.0,
        "Inclination(deg)": 45.0,
        "Latitude(deg)": 45.08708685282866,
        "Longitude(deg)": -174.27008355249612,
        "Mean Anomaly(deg)": 87.22060148224102,
        "RAAN(deg)": 199.9949635642643,
        "Satellite Name": "Constellation 1 885",
        "Satellite Number": 885,
        "Semi-Major Axis(m)": 7083131.272910544,
        "Time(s)": 89
    },
    {
        "Altitude(m)": 707294.5802871612,
        "Argument of Periapsis(deg)": 0.005395320562086505,
        "Eccentricity": 0.0,
        "Inclination(deg)": 45.0,
        "Latitude(deg)": 45.08999787087947,
        "Longitude(deg)": -174.18849539443497,
        "Mean Anomaly(deg)": 87.28130262249094,
        "RAAN(deg)": 199.99490697509876,
        "Satellite Name": "Constellation 1 885",
        "Satellite Number": 885,
        "Semi-Major Axis(m)": 7083131.272910544,
        "Time(s)": 90
    },
    {
        "Altitude(m)": 707295.2328660785,
        "Argument of Periapsis(deg)": 0.00545526856833191,
        "Eccentricity": 0.0,
        "Inclination(deg)": 45.0,
        "Latitude(deg)": 45.09284460490222,
        "Longitude(deg)": -174.10689863206522,
        "Mean Anomaly(deg)": 87.34200376274082,
        "RAAN(deg)": 199.9948503859332,
        "Satellite Name": "Constellation 1 885",
        "Satellite Number": 885,
        "Semi-Major Axis(m)": 7083131.272910544,
        "Time(s)": 91
    },
    {
        "Altitude(m)": 707295.8708876409,
        "Argument of Periapsis(deg)": 0.005515216574577317,
        "Eccentricity": 0.0,
        "Inclination(deg)": 45.0,
        "Latitude(deg)": 45.09562704224117,
        "Longitude(deg)": -174.02529345586592,
        "Mean Anomaly(deg)": 87.40270490299073,
        "RAAN(deg)": 199.9947937967676,
        "Satellite Name": "Constellation 1 885",
        "Satellite Number": 885,
        "Semi-Major Axis(m)": 7083131.272910544,
        "Time(s)": 92
    },
    {
        "Altitude(m)": 707296.4943481594,
        "Argument of Periapsis(deg)": 0.005575164580822722,
        "Eccentricity": 0.0,
        "Inclination(deg)": 45.0,
        "Latitude(deg)": 45.09834517052333,
        "Longitude(deg)": -173.94368005646646,
        "Mean Anomaly(deg)": 87.46340604324061,
        "RAAN(deg)": 199.99473720760204,
        "Satellite Name": "Constellation 1 885",
        "Satellite Number": 885,
        "Semi-Major Axis(m)": 7083131.272910544,
        "Time(s)": 93
    },
    {
        "Altitude(m)": 707297.1032440203,
        "Argument of Periapsis(deg)": 0.005635112587068129,
        "Eccentricity": 0.0,
        "Inclination(deg)": 45.0,
        "Latitude(deg)": 45.100998977658854,
        "Longitude(deg)": -173.86205862464354,
        "Mean Anomaly(deg)": 87.52410718349051,
        "RAAN(deg)": 199.99468061843646,
        "Satellite Name": "Constellation 1 885",
        "Satellite Number": 885,
        "Semi-Major Axis(m)": 7083131.272910544,
        "Time(s)": 94
    }
]